CS1                     
1 49261U 21088B   26068.75173904  .00015722  00000+0  51176-3 0  9998
2 49261  97.3882 132.1684 0014129  78.0335 282.2490 15.31848439245182
STARLINK-36049          
1 66805U 25278Q   26068.80694438  .00021551  00000+0  79065-3 0  9996
2 66805  42.9964 113.9982 0000215 329.7380  30.3459 15.27568749 15222
